GLOBALSTAR M084         
1 38040U 11080A   25174.35112249 -.00000106  00000+0 -14572-4 0  9992
2 38040  52.0026  29.7089 0001106  68.6577 102.2622 12.62266719623440
GLOBALSTAR M080         
1 38041U 11080B   25174.32281985 -.00000093  00000+0  58347-4 0  9996
2 38041  52.0077  31.3890 0000841 109.7186  62.1074 12.62263527623566
GLOBALSTAR M082         
1 38042U 11080C   25174.54713719 -.00000093  00000+0  59014-4 0  9998
2 38042  52.0093 346.1678 0000834 125.9771 276.3440 12.62266901624306
GLOBALSTAR M092         
1 38043U 11080D   25174.67254491 -.00000117  00000+0 -76578-4 0  9992
2 38043  52.0094  76.1621 0000696  60.5852 311.8098 12.62264318622982
GLOBALSTAR M090         
1 38044U 11080E   25174.83240748 -.00000103  00000+0  56108-5 0  9993
2 38044  52.0140 339.1370 0000711 111.4473  28.9918 12.62273699624498
GLOBALSTAR M086         
1 38045U 11080F   25174.86523565 -.00000087  00000+0  93982-4 0  9999
2 38045  51.9916 339.5484 0000897  23.4737 146.6200 12.62271796624508
GLOBALSTAR M097         
1 39072U 13005A   25173.50825870 -.00000095  00000+0  48565-4 0  9999
2 39072  52.0047 258.2334 0000320 151.8900 208.1984 12.62272516571488
GLOBALSTAR M093         
1 39073U 13005B   25174.51130960 -.00000081  00000+0  12799-3 0  9995
2 39073  51.9800 248.4732 0000331 169.7571 190.3302 12.62265680571683
